GLOBALSTAR M035         
1 25851U 99037A   25228.87427728 -.00000050  00000+0  50979-3 0  9991
2 25851  51.9940 279.6328 0013523  80.9952  90.0271 11.04538955102963
GLOBALSTAR M032         
1 25852U 99037B   25228.62541050 -.00000057  00000+0  31300-3 0  9994
2 25852  51.9950 101.2117 0011720 269.7454  90.2003 11.19062466141550
GLOBALSTAR M051         
1 25853U 99037C   25228.78847100 -.00000053  00000+0  45865-3 0  9994
2 25853  51.9764 254.7018 0000445 317.2050  42.8725 11.42205087139310
GLOBALSTAR M030         
1 25854U 99037D   25228.83117869 -.00000069  00000+0  11973-3 0  9993
2 25854  51.9882  56.8444 0003466 142.1805 217.9256 11.55113006157053
GLOBALSTAR M048         
1 25872U 99041A   25228.61872427 -.00000056  00000+0  39024-3 0  9995
2 25872  51.9342 192.4780 0013635 290.8454 240.2105 11.33858540131839
GLOBALSTAR M026         
1 25873U 99041B   25228.73510366  .00000023  00000+0  32156-2 0  9991
2 25873  52.0031  37.2576 0002031  35.2525 337.4161 11.06848665155197
GLOBALSTAR M043         
1 25874U 99041C   25228.45917493 -.00000058  00000+0  30281-3 0  9990
2 25874  51.9415 302.9076 0013401  56.4875 316.5162 11.25694677129660
GLOBALSTAR M028         
1 25875U 99041D   25228.65549121 -.00000066  00000+0  21698-3 0  9993
2 25875  51.9648  12.7575 0063178 202.0272 157.7870 12.50585941197742
